NORAD_CAT_ID,OBJECT_NAME,OBJECT_TYPE,EPOCH,MEAN_MOTION,ECCENTRICITY,INCLINATION,RA_OF_ASC_NODE,ARG_OF_PERICENTER,MEAN_ANOMALY,BSTAR,MEAN_MOTION_DOT,MEAN_MOTION_DDOT,TLE_LINE0,TLE_LINE1,TLE_LINE2,SEMIMAJOR_AXIS,PERIOD,APOGEE,PERIGEE,DECAYED
52665.0,STARLINK-4064,PAYLOAD,2023-02-02 19:28:11,15.08877941,0.0001558,53.2155,190.8333,107.2981,252.8182,0.00024153,3.562e-05,0.0,0 STARLINK-4064,1 52665U 22053K   23033.81124691  .00003562  00000-0  24153-3 0  9993,2 52665  53.2155 190.8333 0001558 107.2981 252.8182 15.08877941 40328,6917.764,95.435,540.707,538.552,0.0
52665.0,STARLINK-4064,PAYLOAD,2023-02-03 03:25:08,15.08854814,5.38e-05,53.2129,189.3447,82.7293,277.376,0.00015063,2.111e-05,0.0,0 STARLINK-4064,1 52665U 22053K   23034.14245520  .00002111  00000-0  15063-3 0  9994,2 52665  53.2129 189.3447 0000538  82.7293 277.3760 15.08854814 40371,6917.835,95.437,540.072,539.328,0.0
52665.0,STARLINK-4064,PAYLOAD,2023-02-03 11:22:06,15.08824773,9.6e-05,53.213,187.8581,86.4269,273.6833,-9.5918e-05,-1.813e-05,0.0,0 STARLINK-4064,1 52665U 22053K   23034.47368397 -.00001813  00000-0 -95918-4 0  9996,2 52665  53.2130 187.8581 0000960  86.4269 273.6833 15.08824773 40425,6917.927,95.439,540.456,539.128,0.0
52665.0,STARLINK-4064,PAYLOAD,2023-02-03 19:19:01,15.08830328,0.0001263,53.2136,186.3709,82.3908,277.7228,-7.471e-05,-1.476e-05,0.0,0 STARLINK-4064,1 52665U 22053K   23034.80488212 -.00001476  00000-0 -74710-4 0  9994,2 52665  53.2136 186.3709 0001263  82.3908 277.7228 15.08830328 40470,6917.91,95.438,540.649,538.901,0.0
52665.0,STARLINK-4064,PAYLOAD,2023-02-04 03:15:57,15.08827177,0.0001121,53.215,184.8852,79.3026,280.8092,-1.3076e-05,-4.96e-06,0.0,0 STARLINK-4064,1 52665U 22053K   23035.13608292 -.00000496  00000-0 -13076-4 0  9992,2 52665  53.2150 184.8852 0001121  79.3026 280.8092 15.08827177 40526,6917.92,95.438,540.56,539.009,0.0
52665.0,STARLINK-4064,PAYLOAD,2023-02-04 14:23:39,15.08836043,0.000105,53.2148,182.8036,76.6408,283.4701,-6.8905e-05,-1.384e-05,0.0,0 STARLINK-4064,1 52665U 22053K   23035.59976065 -.00001384  00000-0 -68905-4 0  9996,2 52665  53.2148 182.8036 0001050  76.6408 283.4701 15.08836043 40595,6917.892,95.438,540.484,539.031,0.0
52665.0,STARLINK-4064,PAYLOAD,2023-02-04 19:09:48,15.08852572,0.0001011,53.2142,181.9105,89.5022,270.6086,-0.00025668,-4.372e-05,0.0,0 STARLINK-4064,1 52665U 22053K   23035.79847510 -.00004372  00000-0 -25668-3 0  9998,2 52665  53.2142 181.9105 0001011  89.5022 270.6086 15.08852572 40621,6917.842,95.437,540.406,539.008,0.0
52665.0,STARLINK-4064,PAYLOAD,2023-02-05 03:06:44,15.08838505,0.0001159,53.2143,180.4239,79.5235,280.5888,-9.5907e-05,-1.814e-05,0.0,0 STARLINK-4064,1 52665U 22053K   23036.12967781 -.00001814  00000-0 -95907-4 0  9991,2 52665  53.2143 180.4239 0001159  79.5235 280.5888 15.08838505 40677,6917.885,95.438,540.552,538.948,0.0
52665.0,STARLINK-4064,PAYLOAD,2023-02-05 12:39:03,15.08821379,0.0001127,53.2139,178.6395,87.9247,272.1874,7.9537e-05,9.78e-06,0.0,0 STARLINK-4064,1 52665U 22053K   23036.52712511  .00000978  00000-0  79537-4 0  9993,2 52665  53.2139 178.6395 0001127  87.9247 272.1874 15.08821379 40735,6917.937,95.439,540.582,539.023,0.0
52665.0,STARLINK-4064,PAYLOAD,2023-02-05 14:14:26,15.08822748,0.0001127,53.2142,178.3426,84.9419,275.1702,9.7314e-05,1.261e-05,0.0,0 STARLINK-4064,1 52665U 22053K   23036.59336431  .00001261  00000-0  97314-4 0  9992,2 52665  53.2142 178.3426 0001127  84.9419 275.1702 15.08822748 40744,6917.933,95.439,540.578,539.018,0.0
52665.0,STARLINK-4064,PAYLOAD,2023-02-05 19:00:36,15.08827635,0.0001156,53.2144,177.4498,92.2483,267.8642,7.1132e-05,8.44e-06,0.0,0 STARLINK-4064,1 52665U 22053K   23036.79208371  .00000844  00000-0  71132-4 0  9991,2 52665  53.2144 177.4498 0001156  92.2483 267.8642 15.08827635 40774,6917.918,95.438,540.583,538.983,0.0
52665.0,STARLINK-4064,PAYLOAD,2023-02-06 09:19:04,15.08832553,0.0001187,53.2144,174.7745,86.1481,273.9646,7.9638e-05,9.8e-06,0.0,0 STARLINK-4064,1 52665U 22053K   23037.38824484  .00000980  00000-0  79638-4 0  9996,2 52665  53.2144 174.7745 0001187  86.1481 273.9646 15.08832553 40860,6917.903,95.438,540.589,538.947,0.0
52665.0,STARLINK-4064,PAYLOAD,2023-02-06 14:05:13,15.08838114,0.0001211,53.2144,173.8825,85.2381,274.8749,0.00011976,1.619e-05,0.0,0 STARLINK-4064,1 52665U 22053K   23037.58696080  .00001619  00000-0  11976-3 0  9997,2 52665  53.2144 173.8825 0001211  85.2381 274.8749 15.08838114 40892,6917.886,95.438,540.589,538.913,0.0
52665.0,STARLINK-4064,PAYLOAD,2023-02-06 18:51:22,15.08845668,9.88e-05,53.2144,172.9891,89.3907,270.7198,0.00012437,1.692e-05,0.0,0 STARLINK-4064,1 52665U 22053K   23037.78567554  .00001692  00000-0  12437-3 0  9996,2 52665  53.2144 172.9891 0000988  89.3907 270.7198 15.08845668 40923,6917.863,95.437,540.412,539.045,0.0
52665.0,STARLINK-4064,PAYLOAD,2023-02-07 09:09:51,15.08835424,0.0001166,53.2148,170.3136,103.3155,256.7967,7.1318e-05,8.47e-06,0.0,0 STARLINK-4064,1 52665U 22053K   23038.38184526  .00000847  00000-0  71318-4 0  9992,2 52665  53.2148 170.3136 0001166 103.3155 256.7967 15.08835424 41010,6917.894,95.438,540.566,538.953,0.0
52665.0,STARLINK-4064,PAYLOAD,2023-02-07 13:56:00,15.08839829,0.0001439,53.2144,169.4201,114.207,245.9072,8.8494e-05,1.121e-05,0.0,0 STARLINK-4064,1 52665U 22053K   23038.58056183  .00001121  00000-0  88494-4 0  9990,2 52665  53.2144 169.4201 0001439 114.2070 245.9072 15.08839829 41041,6917.881,95.438,540.741,538.75,0.0
52665.0,STARLINK-4064,PAYLOAD,2023-02-07 15:31:23,15.08843018,0.0001299,53.2152,169.1238,110.4213,249.6918,9.7388e-05,1.262e-05,0.0,0 STARLINK-4064,1 52665U 22053K   23038.64679982  .00001262  00000-0  97388-4 0  9993,2 52665  53.2152 169.1238 0001299 110.4213 249.6918 15.08843018 41054,6917.871,95.437,540.635,538.838,0.0
52665.0,STARLINK-4064,PAYLOAD,2023-02-08 12:11:25,15.08839083,0.0001321,53.2171,165.2613,114.6,245.513,-3.6289e-05,-8.65e-06,0.0,0 STARLINK-4064,1 52665U 22053K   23039.50792874 -.00000865  00000-0 -36289-4 0  9998,2 52665  53.2171 165.2613 0001321 114.6000 245.5130 15.08839083 41187,6917.883,95.438,540.662,538.834,0.0
52665.0,STARLINK-4064,PAYLOAD,2023-02-08 13:46:48,15.0884208,0.0001365,53.2163,164.9612,119.4332,240.6797,-5.9073e-05,-1.228e-05,0.0,0 STARLINK-4064,1 52665U 22053K   23039.57416675 -.00001228  00000-0 -59073-4 0  9997,2 52665  53.2163 164.9612 0001365 119.4332 240.6797 15.08842080 41199,6917.874,95.437,540.683,538.795,0.0
52665.0,STARLINK-4064,PAYLOAD,2023-02-09 00:54:29,15.08851011,8.64e-05,53.2158,162.8824,88.4154,271.6937,-3.5981e-05,-8.6e-06,0.0,0 STARLINK-4064,1 52665U 22053K   23040.03783939 -.00000860  00000-0 -35981-4 0  9993,2 52665  53.2158 162.8824 0000864  88.4154 271.6937 15.08851011 41267,6917.847,95.437,540.309,539.114,0.0
52665.0,STARLINK-4064,PAYLOAD,2023-02-09 08:51:26,15.08831119,0.0001154,53.2168,161.3939,104.3664,255.7456,-5.2559e-05,-1.124e-05,0.0,0 STARLINK-4064,1 52665U 22053K   23040.36905443 -.00001124  00000-0 -52559-4 0  9999,2 52665  53.2168 161.3939 0001154 104.3664 255.7456 15.08831119 41318,6917.908,95.438,540.571,538.974,0.0
52665.0,STARLINK-4064,PAYLOAD,2023-02-09 15:12:57,15.08845859,0.0001037,53.2163,160.2032,106.1385,253.9721,5.0874e-05,5.22e-06,0.0,0 STARLINK-4064,1 52665U 22053K   23040.63400295  .00000522  00000-0  50874-4 0  9991,2 52665  53.2163 160.2032 0001037 106.1385 253.9721 15.08845859 41350,6917.862,95.437,540.445,539.01,0.0
52665.0,STARLINK-4064,PAYLOAD,2023-02-10 00:45:17,15.08843495,0.0001069,53.2164,158.4196,96.3966,263.7148,-4.0683e-05,-9.35e-06,0.0,0 STARLINK-4064,1 52665U 22053K   23041.03144741 -.00000935  00000-0 -40683-4 0  9994,2 52665  53.2164 158.4196 0001069  96.3966 263.7148 15.08843495 41414,6917.87,95.437,540.474,538.995,0.0
52665.0,STARLINK-4064,PAYLOAD,2023-02-10 11:52:59,15.08833278,9.66e-05,53.2164,156.3381,105.1841,254.9258,0.00013842,1.915e-05,0.0,0 STARLINK-4064,1 52665U 22053K   23041.49513194  .00001915  00000-0  13842-3 0  9999,2 52665  53.2164 156.3381 0000966 105.1841 254.9258 15.08833278 41482,6917.901,95.438,540.434,539.098,0.0
52665.0,STARLINK-4064,PAYLOAD,2023-02-10 15:03:44,15.08858901,7.05e-05,53.2154,155.7453,109.3615,250.7453,0.00018961,2.733e-05,0.0,0 STARLINK-4064,1 52665U 22053K   23041.62759390  .00002733  00000-0  18961-3 0  9990,2 52665  53.2154 155.7453 0000705 109.3615 250.7453 15.08858901 41504,6917.823,95.436,540.175,539.2,0.0
52665.0,STARLINK-4064,PAYLOAD,2023-02-11 00:36:04,15.08842835,8.8e-05,53.2166,153.9589,87.5272,272.582,4.607e-05,4.46e-06,0.0,0 STARLINK-4064,1 52665U 22053K   23042.02504777  .00000446  00000-0  46070-4 0  9994,2 52665  53.2166 153.9589 0000880  87.5272 272.5820 15.08842835 41562,6917.872,95.437,540.345,539.128,0.0
52665.0,STARLINK-4064,PAYLOAD,2023-02-11 16:29:54,15.08852252,7.97e-05,53.2166,150.9855,90.3605,269.7479,0.00013086,1.796e-05,0.0,0 STARLINK-4064,1 52665U 22053K   23042.68743772  .00001796  00000-0  13086-3 0  9995,2 52665  53.2166 150.9855 0000797  90.3605 269.7479 15.08852252 41667,6917.843,95.437,540.259,539.157,0.0
52665.0,STARLINK-4064,PAYLOAD,2023-02-12 09:59:10,15.0883434,0.0001188,53.2162,147.715,74.2514,285.8609,2.4864e-06,-2.48e-06,0.0,0 STARLINK-4064,1 52665U 22053K   23043.41609526 -.00000248  00000-0  24864-5 0  9995,2 52665  53.2162 147.7150 0001188  74.2514 285.8609 15.08834340 41774,6917.898,95.438,540.585,538.941,0.0
52665.0,STARLINK-4064,PAYLOAD,2023-02-12 13:09:55,15.08849056,8.33e-05,53.2163,147.12,66.1095,293.9984,0.00015436,2.17e-05,0.0,0 STARLINK-4064,1 52665U 22053K   23043.54856127  .00002170  00000-0  15436-3 0  9998,2 52665  53.2163 147.1200 0000833  66.1095 293.9984 15.08849056 41793,6917.853,95.437,540.294,539.141,0.0
52665.0,STARLINK-4064,PAYLOAD,2023-02-12 16:20:41,15.08862042,9.71e-05,53.2148,146.527,72.2434,287.8664,3.5714e-05,2.81e-06,0.0,0 STARLINK-4064,1 52665U 22053K   23043.68103529  .00000281  00000-0  35714-4 0  9997,2 52665  53.2148 146.5270 0000971  72.2434 287.8664 15.08862042 41814,6917.813,95.436,540.35,539.006,0.0
